SAC-D
1 37673U 11024A   13345.44996551 +.00000000 +00000+0 +13796-4 6  9448
2 37673  98.0130 350.3517 0001755  81.0779 149.5169 14.72296852134147
